{
    "links": {
        "self": "http://www.neowsapp.com/rest/v1/neo/3264085?api_key=iIulBulltgU6a56xZRHN4H3l9WmuAYTsLGpBGhQ2"
    },
    "id": "3264085",
    "neo_reference_id": "3264085",
    "name": "(2004 XO63)",
    "designation": "2004 XO63",
    "nasa_jpl_url": "http://ssd.jpl.nasa.gov/sbdb.cgi?sstr=3264085",
    "absolute_magnitude_h": 26.2,
    "estimated_diameter": {
        "kilometers": {
            "estimated_diameter_min": 0.0152951935,
            "estimated_diameter_max": 0.0342010925
        },
        "meters": {
            "estimated_diameter_min": 15.2951935344,
            "estimated_diameter_max": 34.201092472
        },
        "miles": {
            "estimated_diameter_min": 0.0095039897,
            "estimated_diameter_max": 0.021251567
        },
        "feet": {
            "estimated_diameter_min": 50.1810827555,
            "estimated_diameter_max": 112.2083122258
        }
    },
    "is_potentially_hazardous_asteroid": false,
    "close_approach_data": [
        {
            "close_approach_date": "2004-12-16",
            "close_approach_date_full": "2004-Dec-16 16:10",
            "epoch_date_close_approach": 1103213400000,
            "relative_velocity": {
                "kilometers_per_second": "7.6539367708",
                "kilometers_per_hour": "27554.1723749908",
                "miles_per_hour": "17121.0911626714"
            },
            "miss_distance": {
                "astronomical": "0.0144033228",
                "lunar": "5.6028925692",
                "kilometers": "2154706.411802436",
                "miles": "1338872.4799521768"
            },
            "orbiting_body": "Earth"
        }
    ],
    "orbital_data": {
        "orbit_id": "9",
        "orbit_determination_date": "2017-04-06 09:11:43",
        "first_observation_date": "2004-12-15",
        "last_observation_date": "2004-12-21",
        "data_arc_in_days": 6,
        "observations_used": 39,
        "orbit_uncertainty": "8",
        "minimum_orbit_intersection": ".0139659",
        "jupiter_tisserand_invariant": "3.148",
        "epoch_osculation": "2453357.5",
        "eccentricity": ".6093144884215634",
        "semi_major_axis": "2.553726240025008",
        "inclination": "1.884335646409511",
        "ascending_node_longitude": "265.0665285209798",
        "orbital_period": "1490.595944560215",
        "perihelion_distance": ".9977038425154476",
        "perihelion_argument": "183.5619245292638",
        "aphelion_distance": "4.10974863753457",
        "perihelion_time": "2453359.003564343448",
        "mean_anomaly": "359.6368679482749",
        "mean_motion": ".2415141415846361",
        "equinox": "J2000",
        "orbit_class": {
            "orbit_class_type": "APO",
            "orbit_class_description": "Near-Earth asteroid orbits which cross the Earth’s orbit similar to that of 1862 Apollo",
            "orbit_class_range": "a (semi-major axis) > 1.0 AU; q (perihelion) < 1.017 AU"
        }
    },
    "is_sentry_object": false
}